Name,Last Updated,Source,Address,"Lat, Long",Phone Number,Hours,Flyer Categories (Yes/No),,,,,,,
,,,,,,,Recovery Center,MAT,Needle Exchange,Detox Services,Fentanyl Strips,Naloxone,,
name,last_updated,source,address,coordinates,phone_number,hours,recovery_center,mat,needle_exchange,detox_services,fentanyl_strips,naloxone,,
"Maryland General Service, Inc. of  Alcoholics Anonymous",10/22/2022,,,,,,FALSE,FALSE,FALSE,FALSE,FALSE,FALSE,name of the organizationa and 24-hour hotline was updated,
Emerge Baltimore Inc.,10/26/2023,https://startyourrecovery.org/facility/emerge-baltimore-inc-baltimore,"1803 Pennsylvania Avenue, Baltimore, MD 21217","39.3046838, -76.63550649999999","During Hours: 443-602-7804
After Hours: 443-636-6335",M-F 9am-5pm,FALSE,TRUE,FALSE,TRUE,FALSE,FALSE,"new resource, substance use resource directory",
People Encouraging People Inc. - Co Occurring Disorders Program,10/26/2023,http://www.peponline.org/locations/recoverycenter.asp,"4201 Primrose Ave, Baltimore, MD 21215","39.3493946, -76.6958621",410-764-8560,M-F 8:30am-5pm,TRUE,TRUE,FALSE,TRUE,FALSE,FALSE,,
Healthy Lives Maryland (Succor),4/4/2023,,,,,,FALSE,FALSE,FALSE,FALSE,FALSE,FALSE,Charrica SUD location- crr,
Standing Strong,11/2/2023,https://www.standingstronginc.org/copy-of-our-services,"2701 E Monument Street
Baltimore, MD 21205","39.2988292, -76.5793161",410-235-3060,M-F 9am-5pm,TRUE,TRUE,FALSE,TRUE,FALSE,FALSE,Charrica SUD location- crr,
Organization of Hope,11/2/2023,https://www.organizationofhope.org/harm-reduction-services/,"218 East Lexington. Street
Ste 601, Baltimore,
MD 21202","39.2914098, -76.61126", 443-570-0988 ,Tu-Th 10am-3pm,TRUE,TRUE,FALSE,TRUE,TRUE,TRUE,"Charrica SUD location- crr, add 70x7 as treatment center",
One Promise Health ,11/2/2023,https://onepromiserecoveryhousing.org/,"6211 Belair Rd, Baltimore, MD 21206","39.3498314, -76.5358869",443-835-2681,"M-Sat 9am-4pm
Sun 24hrs",TRUE,TRUE,FALSE,FALSE,FALSE,FALSE,,
New Vision House of Hope,11/2/2023,https://newvisionhouseofhope.org/,,,,,FALSE,FALSE,FALSE,FALSE,FALSE,FALSE,,
Humble Beginnings Recovery - The Nicholas House,11/2/2023,https://recoverymaryland.com/,"4222 Belmar Avenue
Baltimore, MD 21206","39.3519805, -76.5305107",443-467-4203,M-Sun 24hrs,TRUE,FALSE,FALSE,FALSE,FALSE,FALSE,,
Therapeutic Wellness Services - East Side,11/2/2023,,"6801 Belair Road
Baltimore, MD 21206","39.3561935, -76.5284332",410-665-3000,M-F 9am-5pm,TRUE,FALSE,FALSE,FALSE,FALSE,FALSE,,
TIME Organization Edmondson Avenue,11/2/2023,,"4538 Edmondson Avenue,
Baltimore, MD 21229","39.29437799999999, -76.69244909999999",443-872-2230,"M-F 9am-5pm
Sat 9am-1pm",FALSE,FALSE,FALSE,FALSE,FALSE,FALSE,,
Northern Parkway Treatment Services,11/2/2023,https://www.nptreatmentservices.com/,"3007 E. Northern Parkway
Baltimore, MD 21214","39.3628226, -76.5516906","During Hours: 443-475-0737
After Hours: 443-800-5707","M-F 5am-12pm
Sun 7am-10am",FALSE,TRUE,FALSE,TRUE,FALSE,FALSE,,
Omnis Health Life Wellness Center,11/2/2023,https://omnislife.com/,"2200 Garrison Blvd.
Baltimore, MD, 21216","39.3115622, -76.6754162", 800-795-1213,"M-F 5:30am-1:30pm
Sat 6am-9am",FALSE,TRUE,FALSE,FALSE,FALSE,FALSE,,
"Park Heights Health Services, Inc. (BD Health)",11/2/2023,https://bdhealthservices.com/park-heights/,"5260 Park Heights Avenue
Baltimore MD 21215","39.3493845, -76.6783805",410-999-6299,"M-F 5:15am–11:30am
Sun 6am-9am",FALSE,TRUE,FALSE,TRUE,FALSE,FALSE,,
"BD Health- Hampden Health Solutions at the Rail, Inc. ",11/2/2023,https://bdhealthservices.com/hampden/,"3612 Falls Road
Baltimore, MD 21211","39.3311627, -76.63525340000001",410-467-4357,"M-F 4:45am-11:30am
Sun 7am-10am",FALSE,TRUE,FALSE,TRUE,FALSE,FALSE,,
"BD Health- Eastern Avenue Health Solutions, Inc.",4/4/2023,,"5920 Eastern Ave
Baltimore MD 21224","39.2877228, -76.5450003",,,FALSE,FALSE,FALSE,FALSE,FALSE,FALSE,,
BD Health- Bel Air,4/4/2023,,,,,,FALSE,FALSE,FALSE,FALSE,FALSE,FALSE,,
Winchester Health Methadone Clinic,4/4/2023,,,,,,FALSE,FALSE,FALSE,FALSE,FALSE,FALSE,,
Turning Point Clinic,11/2/0203,https://startyourrecovery.org/facility/turning-point-clinic-baltimore," 2401 East North Avenue, Baltimore, MD 21213","39.3123401, -76.58369619999999",(410) 675-2113,M-Sat 4:30am-1:15pm,FALSE,TRUE,FALSE,TRUE,FALSE,FALSE,"Charrica SUD location-otp, affliated w. new life pantry",
University of Maryland Addiction Treatment Center,4/4/2023,,"1001 W. Pratt St.
Baltimore, MD 21223","39.2855465, -76.6343706",443-462-3400,"M-F
6:15am-1:30pm",FALSE,TRUE,FALSE,TRUE,FALSE,FALSE,Charrica SUD location-otp,
University of Maryland Center for Addiction Medicine,4/4/2023,,"821 N Eutaw St # 405, Baltimore, MD 21201","39.2999534, -76.6211545",(410) 225-8240,"M-F
6am-6pm",FALSE,TRUE,FALSE,TRUE,FALSE,FALSE,Charrica SUD location-otp,
Family Recovery Program,4/4/2023,,,,,,TRUE,FALSE,FALSE,FALSE,FALSE,FALSE,Charrica SUD location- crr,
Marian House,4/28/2020,,,,,,FALSE,FALSE,FALSE,FALSE,FALSE,FALSE,"per email ""We don’t have any COVID specific resources that extend beyond our residential program participants""",
Power Inside,,,,,,,FALSE,FALSE,FALSE,FALSE,FALSE,FALSE,"client based, providing support for ""street homeless"", submitted ask about updates but they are not responsive",
Baltimore City Health Department Needle Exchange Program,4/14/2023,,,,,,FALSE,FALSE,FALSE,FALSE,FALSE,FALSE,mid september,Contact Derrick Hunt at 4103652401 or derrick.hunt@baltimorecity.gov or Cecily at 410-396-3731
Behavioral Health Leadership Institute Van,8/3/2022,,,,,,FALSE,FALSE,FALSE,FALSE,FALSE,FALSE,"below 9th grade reading level (could not go lower due to names of medication), ",Call Deborah Agus at (443) 838-5593. May have to be persistent and call multiple times. 
The Cheasapeake and Potamic Region of Narcotics Anonymous ,2023-01-31,,,,,,FALSE,FALSE,FALSE,FALSE,FALSE,FALSE,,
BCRI (Baltimore Crisis Response Inc),2023-01-31,,,,,,FALSE,FALSE,FALSE,FALSE,FALSE,FALSE,,
Addiction Treatment Services at Johns Hopkins Bayview - MFL Building,01-31-23,,,,,,FALSE,FALSE,FALSE,FALSE,FALSE,FALSE,Subcategory: Opioid Treatment Programs,(410) 550-0004
Addiction Treatment Services at Johns Hopkins Bayview -BBRC Building,01-31-23,,,,,,FALSE,FALSE,FALSE,FALSE,FALSE,FALSE,Subcategory: Opioid Treatment Programs,(410) 550-0133
"Halyard Behavioral Health & Wellness, LLC (HBH Wellness LLC)",01-31-23,,,,,,FALSE,FALSE,FALSE,FALSE,FALSE,FALSE,Subcategory: Recovery Residences,
"Baltimore Crisis Response, Inc.",01-31-23,,,,,,FALSE,FALSE,FALSE,FALSE,FALSE,FALSE,Subcategory: Harm Reduction Resources,
Baltimore Safe Haven,01-31-23,,,,,,FALSE,FALSE,FALSE,FALSE,FALSE,FALSE,Subcategory: Harm Reduction Resources,
Behavioral Health System Baltimore,01-31-23,,,,,,FALSE,FALSE,FALSE,FALSE,FALSE,FALSE,Subcategory: Harm Reduction Resources,
"Belair Health Solutions, Inc.",01-31-23,,,,,,FALSE,FALSE,FALSE,FALSE,FALSE,FALSE,Subcategory: Opioid Treatment Programs,410-509-0205
BeSure,,,,,,,FALSE,FALSE,FALSE,FALSE,FALSE,FALSE,Subcategory: Harm Reduction Resources,
BNJ Health Services (Reistertown),01-31-23,,,,,,FALSE,FALSE,FALSE,FALSE,FALSE,FALSE,Subcategory: Opioid Treatment Programs,
"BNJ Health Services, LLC (Washington Blvd)",01-31-23,,,,,,FALSE,FALSE,FALSE,FALSE,FALSE,FALSE,Subcategory: Opioid Treatment Programs,(410) 624-7894
By Grace Counseling Services,01-31-23,,,,,,FALSE,FALSE,FALSE,FALSE,FALSE,FALSE,Subcategory: Opioid Treatment Programs,(410) 354-0849
Central Maryland Area Health Education Center (formerly BAHEC),,,,,,,FALSE,FALSE,FALSE,FALSE,FALSE,FALSE,Subcategory: Harm Reduction Resources,
Clay Pots: A Place to Grow,,,,,,,FALSE,FALSE,FALSE,FALSE,FALSE,FALSE,Subcategory: Harm Reduction Resources,
"Complete Wellness Recovery, Inc",01-31-23,,,,,,FALSE,FALSE,FALSE,FALSE,FALSE,FALSE,Subcategory: Recovery Residences,
American Psychiatric Group ,3/31/2023,,,,,,FALSE,FALSE,FALSE,FALSE,FALSE,FALSE,"Up to date, winter coat drive annually, thanksgiving luncheon ",410-600-3500
Another Chance Recovery LLC,3/31/2023,,,,,,FALSE,FALSE,FALSE,FALSE,FALSE,FALSE,"Up-to-date; Website is currently down so I removed from page but working on setting up DWI/DUI, PHP, and mental health resources","443.869.6573 (General Information), 443.835.2710 (Kevin); anotherchancerecoveryllc@gmail.com"
Baltimore Child & Adolescent Response System (BCARS),3/31/2023,,,,,,FALSE,FALSE,FALSE,FALSE,FALSE,FALSE,"Up to date, confirmed with contact",kkeegan@cc-md.org; Office- 667-600-3038; Cell- 410-804-3476; Hotline- 410-366-8573
Baltimore County Health Department Substance Use Services,3/31/2023,,,,,,FALSE,FALSE,FALSE,FALSE,FALSE,FALSE,Up to date; update narcan training dates monthly,410-887-3224
The Baltimore Station,3/31/2023,,,,,,FALSE,FALSE,FALSE,FALSE,FALSE,FALSE,Up to date,410-752-4454 x103
B.E. Able Recovery Sources LLC,3/31/2023,,,,,,FALSE,FALSE,FALSE,FALSE,FALSE,FALSE,Can email Frances for updates,(844) 410-2253; fcozart@beablerecoveryresources.com
Bmore POWER,3/31/2023,,,,,,FALSE,FALSE,FALSE,FALSE,FALSE,FALSE,Up to date,"Danielle.Johnson@bhsbaltimore.org, 443.678.3667 "
Baltimore Medical System (BMS) - Highlandtown (SUD Treatment) ,3/31/2023,,,,,,FALSE,FALSE,FALSE,FALSE,FALSE,FALSE,"Up to date, See if any other Baltimore locations have SUD resources","catchamberlain@gmail.com, (214) 707-9556"
Changing Directions Recovery Services LLC,3/31/2023,,,,,,FALSE,FALSE,FALSE,FALSE,FALSE,FALSE,Up to date,foster-dotson@inspiringchangemhs.org
Changing Lives at Home Mental Health,3/31/2023,,,,,,FALSE,FALSE,FALSE,FALSE,FALSE,FALSE,Up to date,(443) 869-2600
Chrysalis House Healthy Start,4/11/2023,,,,,,FALSE,FALSE,FALSE,FALSE,FALSE,FALSE,Up to date,"410-483-8870, dtribble@chrysalishouses.org"
CMDS Residential - Fayette House,4/6/2023,,,,,,FALSE,FALSE,FALSE,FALSE,FALSE,FALSE,,
Concerted Care Group Baltimore,4/6/2023,,,,,,FALSE,FALSE,FALSE,FALSE,FALSE,FALSE,Up-to-date,"410.617.0142 or 24-hour
833-224-5483"
Concerted Care Group Frederick,4/6/2023,,,,,,FALSE,FALSE,FALSE,FALSE,FALSE,FALSE,"Up to date, Turkey dinner distributiion *, check FB for updates; contacted about Spanish services",240.815.7300
Concerted Care Group Brooklyn,4/6/2023,,,,,,FALSE,FALSE,FALSE,FALSE,FALSE,FALSE,Up to date,667-260-2600 or 24-hour 833-224-5483
"Dayspring Programs, Inc.",4/6/2023,,,,,,FALSE,FALSE,FALSE,FALSE,FALSE,FALSE,Up to date; reached out via email 1/10,410.563.3459 
"Deborah's Place, Inc.",4/6/2023,,,,,,FALSE,FALSE,FALSE,FALSE,FALSE,FALSE,"Added PHP service, up to date","410.235.2837, mharris32001@yahoo.com"
"Damascus House, Inc.",4/6/2023,,,,,,FALSE,FALSE,FALSE,FALSE,FALSE,FALSE,Up to date,410-789-7446
Druid Heights Community Development Corporation,3/7/2023,,,,,,FALSE,FALSE,FALSE,FALSE,FALSE,FALSE,Up to date,"410-523-1350, jjennings@druidheights.com and tbenson@druidheights.com"
"Eva Life Giver, Inc. - Baltimore City",1/12/2023,,,,,,FALSE,FALSE,FALSE,FALSE,FALSE,FALSE,Up to date; update community meeting monthly,443.873.8958; kdevaughn@evalifegiver.org
"Eva Life Giver, Inc. - Baltimore County (Parkville)",1/12/2023,,,,,,FALSE,FALSE,FALSE,FALSE,FALSE,FALSE,Up to date,443.873.8958; kdevaughn@evalifegiver.org
"Face Baltimore, Inc.",1/17/2023,,,,,,FALSE,FALSE,FALSE,FALSE,FALSE,FALSE,Contact annually about service changes; No intake form; Planning for expansion of their newly renovated facility to accommodate a 60-bed supportive/transitional residency housing to be complete within the next two years,410.522.3223
"Family Health Centers of Baltimore, Cherry Hill Center",1/6/2023,,,,,,FALSE,FALSE,FALSE,FALSE,FALSE,FALSE,"Does not directly have MAT services, but doctor on site to provide medication as needed; other services not substance abuse are provided in center too; Annual Toy Drive & Giveaway for next year *",(410) 354-2000
First Choice Counseling Center (FCCC),1/17/2023,,,,,,FALSE,FALSE,FALSE,FALSE,FALSE,FALSE,Left a voicemail regarding hours/resources,410 989-9922
GAM Counseling Services LLC,1/24/2023,,,,,,FALSE,FALSE,FALSE,FALSE,FALSE,FALSE,Working on getting Spanish speakers in the center; Sent email update on 1/26 with intake information ,"410.262.7455, michaelgibbs992@gmail.com"
Gaudenzia Inc. - Owings Mills-Richards Building,1/24/2023,,,,,,FALSE,FALSE,FALSE,FALSE,FALSE,FALSE,Up to date,(443) 423-1500
Gaudenzia Inc. - The Harry and Jeanette Weinberg Center,1/24/2023,,,,,,FALSE,FALSE,FALSE,FALSE,FALSE,FALSE,Up to date,(410) 367-5551
Gaudenzia Inc. - Park Heights,1/24/2023,,,,,,FALSE,FALSE,FALSE,FALSE,FALSE,FALSE,Up to date,(443) 423-1500
"The Gifted Women Project, Inc.",,,,,,,FALSE,FALSE,FALSE,FALSE,FALSE,FALSE,,
"Glenwood Life Counseling Center, Inc.",1/27/2023,,,,,,FALSE,FALSE,FALSE,FALSE,FALSE,FALSE,"Website is down as of 10/24, should be up shortly -- up to date; Services do not change but will begin providing primary care starting in 2023- said to contact again in the start of 2023 ",410.323.9811 ex.205
"Halyard Behavioral Health & Wellness, LLC (HBH Wellness LLC)",1/31/2023,,,,,,FALSE,FALSE,FALSE,FALSE,FALSE,FALSE,"Varying locations for some services but not disclosed until patient is enrolled for confidentality, Up to date","240.718.8274, tashicah@hbhwellness.com"
Health and Recovery Practice (HARP),1/26/2023,,,,,,FALSE,FALSE,FALSE,FALSE,FALSE,FALSE,Up to date,443.462.3694
Heritage Treatment Center,1/26/2023,,,,,,FALSE,FALSE,FALSE,FALSE,FALSE,FALSE,"Website just updated, up to date",443.873.9389 
Hope Haven Holistic Treatment Services,1/26/2023,,,,,,FALSE,FALSE,FALSE,FALSE,FALSE,FALSE,Up to date,"410-882-9000, Ikcare0709@gmail.com"
House of Change,1/20/2023,,,,,,FALSE,FALSE,FALSE,FALSE,FALSE,FALSE,Up to date,(410) 323-3500
I'm Still Standing By Grace,1/24/2023,,,,,,FALSE,FALSE,FALSE,FALSE,FALSE,FALSE,No hours on website - confirm,"(410) 355-1379, bygraceclients@gmail.com"
IBR/REACH Health Services,1/24/2023,,,,,,FALSE,FALSE,FALSE,FALSE,FALSE,FALSE,"Spoke about updates on Microsoft Teams call after emailing at vwalters@ibrinc.org; Hours limited on Saturdays (2-4 hours) because of current nursiing shortages; Vickie will contact me with updates as needed, but can find up-to-date information regarding office, emergency, or holiday closures on Facebook page.",410-752-6616
International Overdose Awareness Day,ARCHIVED,,,,,,FALSE,FALSE,FALSE,FALSE,FALSE,FALSE,-,-
"Issaiah House, Inc.",1/24/2023,,,,,,FALSE,FALSE,FALSE,FALSE,FALSE,FALSE,"Filled out google form questionnaire; contact annually about service changes; CONTACT ABOUT DIFFERING ADDRESSES --> 75 Hanover Pl NW, Eastern Ave, Calwell Rd.","443-882-1943, dbrax55@gmail.com"
Johns Hopkins Hospital Broadway Center for Addiction,2/8/2023,,,,,,FALSE,FALSE,FALSE,FALSE,FALSE,FALSE,Up to date,(410) 955-5439
Johns Hopkins Hospital Broadway Center for Addiction - Wilson House,3/9/2023,,,,,,FALSE,FALSE,FALSE,FALSE,FALSE,FALSE,Up to date,410-244-0494
John Hopkins Medicine -- Bartlett Clinic,,,,,,,FALSE,FALSE,FALSE,FALSE,FALSE,FALSE,,
Kolmac Outpatient Recovery Centers,1/26/2023,,,,,,FALSE,FALSE,FALSE,FALSE,FALSE,FALSE,Up to date,(888) 852-6962
Lifebridge Health - Sinai Hospital Addictions Recovery Program (SHARP),1/26/2023,,,,,,FALSE,FALSE,FALSE,FALSE,FALSE,FALSE,Up to date,410-601-5355
Lifebridge Health - Carroll Hospital ,ARCHIVED,,,,,,FALSE,FALSE,FALSE,FALSE,FALSE,FALSE,Not in Baltimore,410-871-7110.
Lifebridge Health - Grace Medical Center Emergency Care,1/26/2023,,,,,,FALSE,FALSE,FALSE,FALSE,FALSE,FALSE,,
Lifebridge Health - Grace Medical Center Bon Secours New Hope Treatment/ADAPT,1/26/2023,,,,,,FALSE,FALSE,FALSE,FALSE,FALSE,FALSE,Up to date,410.945.7706
"Light of Truth Center, Inc. - Training Restoration Center",1/27/2023,,,,,,FALSE,FALSE,FALSE,FALSE,FALSE,FALSE,Up to date,443-393-2109; mann-leonard@lightoftruthcenter.org
"Light of Truth Center, Inc. - Jefferson Jones Center",1/27/2023,,,,,,FALSE,FALSE,FALSE,FALSE,FALSE,FALSE,Up to date,443-393-2109; mann-leonard@lightoftruthcenter.org
"Light of Truth Center, Inc - Sollins-McCarthy Center",1/27/2023,,,,,,FALSE,FALSE,FALSE,FALSE,FALSE,FALSE,Up to date,443-393-2109; mann-leonard@lightoftruthcenter.org
"Light of Truth Center, Inc. - Leonard Family Center - Returning Citizens (Pilot Program) ",1/27/2023,,,,,,FALSE,FALSE,FALSE,FALSE,FALSE,FALSE,Up to date,443-393-2109; mann-leonard@lightoftruthcenter.org
"Light of Truth Center, Inc. - Payson Recovery Home",1/27/2023,,,,,,FALSE,FALSE,FALSE,FALSE,FALSE,FALSE,Up to date,443-393-2113
Lighthouse Studies at Peer Point,2023-01-27,,,,,,FALSE,FALSE,FALSE,FALSE,FALSE,FALSE,,410-502-5368
"Lotus Recovery Center, Inc.",1/27/2023,,,,,,FALSE,FALSE,FALSE,FALSE,FALSE,FALSE,"Just updated site, up to date", (443) 438-0777
"Man Alive, Inc.",1/27/2023,,,,,,FALSE,FALSE,FALSE,FALSE,FALSE,FALSE,Up to date,410-837-4292
"Man Alive, Inc. (Lane Treatment Center)",1/27/2023,,,,,,FALSE,FALSE,FALSE,FALSE,FALSE,FALSE,Up to date,410-837-4293
Marian House I,2023-01-27,,,,,,FALSE,FALSE,FALSE,FALSE,FALSE,FALSE,Up to date,"410-467-4121, pham@marianhouse.org"
Marian House II,2023-01-27,,,,,,FALSE,FALSE,FALSE,FALSE,FALSE,FALSE,Up to date,"410-467-4121, pham@marianhouse.org"
Marian House - Independence Place (Harry and Jeanette Weinberg Building),2023-01-27,,,,,,FALSE,FALSE,FALSE,FALSE,FALSE,FALSE,Up to date,410-433-1453
Marian House - Serenity Place,2023-01-27,,,,,,FALSE,FALSE,FALSE,FALSE,FALSE,FALSE,Up to date,410-235-5975
"Maryland Center for Veterans Education and Training, Inc. (McVet)",2023-03-07,,,,,,FALSE,FALSE,FALSE,FALSE,FALSE,FALSE,"Up to date, 24/7 hours",410.576.9626
Maryland House Detox,2023-01-27,,,,,,FALSE,FALSE,FALSE,FALSE,FALSE,FALSE,"Up to date, Responsive on their facebook page about questions",(443) 888-2369
Maryland Peer Advisory Council (MPAC),2023-01-27,,,,,,FALSE,FALSE,FALSE,FALSE,FALSE,FALSE,Up to date,443-438-7569
Maryland Recovery Homes,2/8/2023,,,,,,FALSE,FALSE,FALSE,FALSE,FALSE,FALSE,Up to date,443-422-8497
"Maryland Treatment Centers, Inc. (Mountain Manor)",2/9/2023,,,,,,FALSE,FALSE,FALSE,FALSE,FALSE,FALSE,"Website just updated, adolescent programs only available for Rockville location even though it says they have",(410)-233-1400
"Maryland Treatment Centers, Inc. (Mountain Manor Outpatient Services - Dundalk)
",2/9/2023,,,,,,FALSE,FALSE,FALSE,FALSE,FALSE,FALSE,"Website just updated, adolescent programs only available for Rockville location even though it says they have",410-276-0153
"Maryland Treatment Centers, Inc. (Chesapeake Treatment Centers
& New Directions & Right Moves Programs)",ARCHIVED,,,,,,FALSE,FALSE,FALSE,FALSE,FALSE,FALSE,Government issued ID required when arriving at facility; unable to get updates because administrative office did not answer -- left message; archive until able to get in contact with someone,410-663-8500
Medmark Treatment Centers Baltimore Downtown 101 ,2/9/2023,,,,,,FALSE,FALSE,FALSE,FALSE,FALSE,FALSE,Up to date,(410) 225-9185
Medmark Treatment Centers Baltimore Downtown 201,2/9/2023,,,,,,FALSE,FALSE,FALSE,FALSE,FALSE,FALSE,Up to date,(410) 225-9185
"MedMark Treatment Centers Mt. Vernon (Glass Health Programs, Inc.) ",2/9/2023,,,,,,FALSE,FALSE,FALSE,FALSE,FALSE,FALSE,Up to date,"443-290-6424, cowens@medmark.com"
MedMark Treatment Centers Timonium,ARCHIVED,,,,,,FALSE,FALSE,FALSE,FALSE,FALSE,FALSE,"Not in Baltimore City, only county",410.561.9591
MedMark Treatment Centers Essex,2/9/2023,,,,,,FALSE,FALSE,FALSE,FALSE,FALSE,FALSE,Up to date,410.486.2500
MedMark Treatment Centers Cherry Hill,2/9/2023,,,,,,FALSE,FALSE,FALSE,FALSE,FALSE,FALSE,Up to date,(410) 354-2800
"Mincey Health Services, Inc.",,,,,,,FALSE,FALSE,FALSE,FALSE,FALSE,FALSE,,"443.473.3639, minceyhealthservices@gmail.com"
Misha House LLC,2/10/2023,,,,,,FALSE,FALSE,FALSE,FALSE,FALSE,FALSE,Up to date,(443) 708-3054; tsmith@mishahouse.org
"Moving Forward Adult Services, LLC",2/10/2023,,,,,,FALSE,FALSE,FALSE,FALSE,FALSE,FALSE,Up to date; Contact said she will email me with updates as necessary,410-243-1906
Mulberry 2133 LLC,,,,,,,FALSE,FALSE,FALSE,FALSE,FALSE,FALSE,,"410-521-7874, mulberry2133@gmail.com "
"My Father's Heart, Inc.",ARCHIVED,,,,,,FALSE,FALSE,FALSE,FALSE,FALSE,FALSE,Sent an email and messaged on FB because no phone number / address provided on the website -- no response after multiple times contacting,?
The Nicolas House LLC,,,,,,,FALSE,FALSE,FALSE,FALSE,FALSE,FALSE,,
New Season Treatment Center - Hagerstown,2/10/2023,,,,,,FALSE,FALSE,FALSE,FALSE,FALSE,FALSE,"Up to date, call between 5:00-1:30",877-284-7074
"No Turning Back, Inc.",2/10/2023,,,,,,FALSE,FALSE,FALSE,FALSE,FALSE,FALSE,Up to date,443.744.9802
One Promise Transitional House LLC,1/23/2024,https://onepromiserecoveryhousing.org/,"6207 Bel Air Road, Baltimore, MD 21206​","39.3497244, -76.53597979999999",443-835-2681​,,TRUE,TRUE,FALSE,FALSE,FALSE,FALSE,,
Open Arms LLC,1/23/2024,openarmsprp.com,"4201 Belmar Rd, Baltimore, MD 21206","39.3518021, -76.5334495",667-239-3195​,M-F 8:30am-4:30pm,TRUE,TRUE,FALSE,FALSE,FALSE,FALSE,Up to date,(667) 239-3195
"Orleans Health, LLC",1/23/2024,orleanshealthllc.com,"2323 Orleans St, Baltimore, MD 21224​","39.2953029, -76.584262",410-779-9909​,,TRUE,TRUE,FALSE,FALSE,FALSE,FALSE,,
Parkwest (SUD Treatment),1/23/2024,https://www.parkwestmed.org/,"4120 Patterson Avenue, Baltimore, MD 21215​","39.3550864, -76.7048354",443-884-7719,M-F 8:30am-5pm​,TRUE,TRUE,FALSE,FALSE,FALSE,FALSE,,
Passionate Hands Transitional Housing,1/23/2024,http://www.passionatehandsinc.org/,"4711 Liberty Heights Avenue, Baltimore, MD 21207","39.3314092, -76.6960825",443-213-8243,,TRUE,FALSE,FALSE,FALSE,FALSE,FALSE,,"410-466-7000, passionatehands2@aol.com"
Patty's Place Inc.,1/23/2024,https://www.facebook.com/p/Pattys-Place-Transitional-Housing-100081023967493/,"4515 Frankford Ave, Baltimore, MD 21206","39.3339416, -76.5484055",443-356-2010,M-Su 9am-9pm,TRUE,FALSE,FALSE,FALSE,FALSE,FALSE,Up to date,443-356-2010
"Maryland Community Health Initiatives, Inc. - 
Penn North Recovery Center",1/23/2024,penn-north.com,"2410 Pennsylvania Avenue, Suite 200, Baltimore, MD 21217","39.3094876, -76.6419875",410-728-2080,M-F 8am-8pm,TRUE,TRUE,FALSE,TRUE,FALSE,FALSE,Up to date,410-728-2080
"People Encouraging People, Inc. (Dale Meyer) - Recovery Center",1/23/2024,https://www.peponline.org/,"22 S Howard Street, Baltimore, MD 21201","39.2882471, -76.619489",410-366-4299,,TRUE,FALSE,FALSE,FALSE,FALSE,FALSE,Up to date,410-764-8560
"Pine Heights Comprehensive Treatment Center - ATS of Cecil County, LLC",1/23/2024,ctcprograms.com,"3455 Wilkens Ave., Lower Level 20, Baltimore, MD 21229","39.2716544, -76.6765075",410-983-3872,"M-F 5:30am-11:30am, Sat 5:30am-9:30am",TRUE,TRUE,FALSE,FALSE,FALSE,FALSE,Up to date,(443) 543-9705
Powell Recovery Center,1/23/2024,powellrecovery.com,"14 S. Broadway, Baltimore, MD 21231","39.2909448, -76.5940593",410-276-1773,M-F 8am-4pm,TRUE,TRUE,FALSE,TRUE,FALSE,FALSE,Up to date,
"Behavioral Health Leadership Institute, Inc. (BHLI) PCARE Van",1/23/2024,bhli.org,"301 E. Eager St, Baltimore, MD 21202​","39.3012086, -76.6107775",443-738-4731,M-F 7:30am-3pm,FALSE,FALSE,FALSE,FALSE,FALSE,FALSE,Called Deborah Agus for updates at 443-838-5593 after emailing at deborahagus.bhli@gmail.com; Up to date,"
(443) 738-4731"
Recovery Network,11/12/2023,https://www.recoverynetwork.org/residential-programs,"21 W. 25th Street, Baltimore, MD 21218","39.317669, -76.618087",410-366-1717,M-F 8:30am-5pm,TRUE,FALSE,FALSE,FALSE,FALSE,FALSE,,
Reflective Treatment Center (East Baltimore Community Corporation),11/6/2023,https://ebcconline.org/programs/reflective-treatment-center/,"301 N. Gay Street Lower Level, Baltimore, MD 21202","39.293406, -76.6076823",410-752-3500,M-F 7:30am-6pm,FALSE,TRUE,FALSE,FALSE,FALSE,FALSE,Up to date,"410-727-9103, mbrothers@ebcconline.org"
Redeem Healthcare Medical Systems - Pratt Street,11/6/2023,https://baltimorecity.md.networkofcare.org/mh/index.aspx,"2127 W Pratt St, Baltimore, MD 21223","39.2847228, -76.6508516",410-878-0655,M-F 8:30am-5pm,FALSE,FALSE,FALSE,FALSE,FALSE,FALSE,Up to date,410-878-0655
Redeem Healthcare Medical Systems - Church Square,11/6/2023,https://baltimorecity.md.networkofcare.org/mh/index.aspx,"917 North Caroline Street, Baltimore, MD 21205","39.3006878, -76.5965452",410-522-1030,M-F 8:30am-5pm,FALSE,FALSE,FALSE,FALSE,FALSE,FALSE,Up to date,410-878-0655
The Resource Group Counseling and Education Center,11/6/2023,https://resourcegrp.org/,"8501 Lasalle Rd Suite 115, Towson, MD 21286","39.3934104, -76.576219",410-337-7772,M-F 8am-5pm,FALSE,TRUE,FALSE,FALSE,FALSE,FALSE,Up to date ,410-337-7772
Restoring Minds Behavioral Health Services,11/6/2023,www.restoringmindsbehavioral.com,"1105 North Point Blvd Suite 310 Baltimore, MD 21224","39.2893913, -76.5069559",443-943-0007,M-F 9am-5pm,FALSE,FALSE,FALSE,FALSE,FALSE,FALSE,"Contact Nicole Shell, emailed about scheduling call to verify services",(443) 943-0007 
Riverside Treatment Services LLC - Rosedale,11/6/2023,https://rtsrosedale.com/,"8359 Pulaski Hwy
Rosedale, MD 21237","39.3259402, -76.4967467",443-730-6104,"M-F 5am-12pm, Sat 7am-12pm",TRUE,TRUE,FALSE,FALSE,FALSE,FALSE,Facebook/instagram page regularly updated regarding closures and events,(443) 730-6104
Riverside Treatment Services LLC - Edgewood,11/6/2023,https://rtsrosedale.com/,"2205 Pulaski Hwy
Edgewood, MD 21040","39.4362232, -76.30551609999999",443-456-9001,,TRUE,TRUE,FALSE,FALSE,FALSE,FALSE,Up to date,
Riverside Treatment Services LLC - Lansdowne,11/6/2023,https://rtsrosedale.com/,"1903 Lansdowne Rd
Arbutus, MD 21227","39.2525407, -76.6670086",410-565-6244,,TRUE,TRUE,FALSE,FALSE,FALSE,FALSE,Up to date,
Royal Minds Rehabiliation Services ,11/2/2023,https://royalmindsrehab.com/,"3719 E Baltimore St, Baltimore, MD 21224","39.2924463, -76.56609449999999",410-943-2424,M-F 8am-5pm,TRUE,TRUE,FALSE,TRUE,FALSE,FALSE,"Up to date, website comprehensive ",410-943-2424
Sarahs House Mental Health Servs LLC,11/2/2023,https://www.sarahshousemhs.com/contact-sarahs-house/,"2901 Druid Park Drive
Suite A-201, Baltimore, Maryland 21215","39.3234561, -76.6599964",443-278-9428,"M-Th 9am-6pm, F 9am-5pm",FALSE,TRUE,FALSE,TRUE,FALSE,FALSE,Info from SYR,
Self-Determined Recovery LLC,11/2/2023,https://www.sdr4sud.com/,"4729 Hazelwood Avenue
Baltimore, MD 21206","39.3418157, -76.5324076",410-802-8477,,FALSE,TRUE,FALSE,TRUE,FALSE,FALSE,,
The Seventy Times Seven Wellness Mission,11/2/2023,https://70x7wm.com/,"2222 N Howard St, Baltimore, MD 21218","39.3148884, -76.61992839999999",410-624-5037,M-F 9am-5pm,FALSE,FALSE,FALSE,FALSE,FALSE,FALSE,,
Sheppard Pratt - Towson Campus,11/2/2023,https://www.sheppardpratt.org/care-finder/addiction-services/,"2225 North Charles Street, 1st Floor, Baltimore, MD 21218","39.3150357, -76.61663229999999",443-573-8671,,TRUE,TRUE,FALSE,FALSE,FALSE,FALSE,Up to date; Look at website for details,(410) 938-3000
Sheppard Pratt - Partners in Recovery/Mosaic Community Services,11/2/2023,https://www.sheppardpratt.org/care-finder/addiction-services/,"6501 N. Charles Street, Gibson Building, Baltimore, MD 21204","39.3906189, -76.619491",410-938-4901,,TRUE,TRUE,FALSE,FALSE,FALSE,FALSE,Up to date,443-573-8671
Total Healthcare Inc Substance Abuse Services,11/2/2023,https://totalhealthcare.org/our-services/substance-use-treatment-services/,"1501 W Saratoga St, Baltimore, MD 21223","39.2919049, -76.6414968",410-383-8300,M-F 8:30am-7pm,FALSE,TRUE,FALSE,FALSE,FALSE,FALSE,,
The Trill Foundation,11/2/2023,https://www.facebook.com/topnotchministriesinc.org/,"20 E Franklin St.
Baltimore, MD 21202","39.295295, -76.6145097",443-208-7737,M-Sat 9am-5pm,FALSE,FALSE,FALSE,FALSE,FALSE,FALSE,Up to date,(443) 208-7737
"Tuerk House, Inc.",11/2/2023,https://www.tuerkhouse.org/locations/,"730 Ashburton Street, Baltimore, MD 21216","39.2967772, -76.66187479999999",410-233-0684,"M-F 7am-9pm, Sat-Sun 9am-5pm",FALSE,TRUE,FALSE,TRUE,FALSE,FALSE,"Can call cell anytime for updates; Doing construction on main campus so less beds than usual (will change in Jan 2023); will have adolescent only center in ~a year; no intake/referral to attach on webiste, form can be directly filled out on site",410-233-0684; 410-320-1921 (cell Chris)
Turning Corners Inc. - Bel Air,11/2/2023,https://www.turningcornersinc.com/,"260 Gateway Dr Suite 15-16A, Bel Air, MD 21014","39.5359406, -76.34829309999999",410-893-3896,"M-Th 8:30am-8:00pm, F 8:30am-5:00pm",TRUE,FALSE,FALSE,FALSE,FALSE,FALSE,8/2/22: Reached out via email for updates/scheduling call,410-893-3896
Turning Corners Inc. - Parkville,11/2/2023,https://www.turningcornersinc.com/,"8831 Satyr Hill Road, Parkville, Maryland, 21234","39.4014458, -76.5454697",410-485-8876,,TRUE,FALSE,FALSE,FALSE,FALSE,FALSE,8/2/22: Reached out via email for updates/scheduling call,410-893-3896
The WEL Foundation,11/2/2023,,,,,,FALSE,FALSE,FALSE,FALSE,FALSE,FALSE,9/2/22: Contacted Towanda Carter about her wanting to be added to database,443.826.2770.
University of Maryland Outpatient Addiction Treatment Services (OATS),11/2/2023,https://www.umms.org/ummc/locations/addiction-treatment,"1001 W. Pratt St., Baltimore, MD 21223","39.2855465, -76.6343706",443-462-3400,M-F 6:15am-10am,FALSE,TRUE,FALSE,FALSE,TRUE,TRUE,,
ValleyBridge House,11/2/2023,https://www.charmcare.org/locations/valley-bridge-alcoholism-program/valley-house?org_name=Valley+Bridge+House,"28 & 30 South Broadway, Baltimore, MD","39.2905605, -76.59413640000001",410-675-7765,,TRUE,FALSE,FALSE,FALSE,FALSE,FALSE,,benjamin.toney@gmail.com
VA Maryland Healthcare System Baltimore VAMC/MH Clinic Center,11/2/2023,https://www.va.gov/maryland-health-care/locations/baltimore-va-medical-center/,"10 North Greene Street, Baltimore, MD","39.290014, -76.624006",410-605-7000,M-F 8am-4:30pm,TRUE,TRUE,FALSE,TRUE,FALSE,FALSE,Updated,
"Wright Way Recovery, Inc.",11/2/2023,https://the-wright-way-transitional-housing.business.site/,"4847 Vicky Road, Nottingham, MD 21236","39.3995354, -76.4537103",443-985-5821,9am-5pm,TRUE,FALSE,FALSE,FALSE,FALSE,FALSE,"Need to get in contact, new website at https://the-wright-way-transitional-housing.business.site/?utm_source=gmb&utm_medium=referral with different address/info ",410.718.4077